NORAD_CAT_ID,OBJECT_NAME,OBJECT_TYPE,EPOCH,MEAN_MOTION,ECCENTRICITY,INCLINATION,RA_OF_ASC_NODE,ARG_OF_PERICENTER,MEAN_ANOMALY,BSTAR,MEAN_MOTION_DOT,MEAN_MOTION_DDOT,TLE_LINE0,TLE_LINE1,TLE_LINE2,SEMIMAJOR_AXIS,PERIOD,APOGEE,PERIGEE,DECAYED
54100.0,STARLINK-5185,PAYLOAD,2024-08-10 18:26:57,15.08850168,0.0001267,53.2175,39.2392,97.3164,262.7972,0.00058098,8.973e-05,0.0,0 STARLINK-5185,1 54100U 22136BB  24223.76872260  .00008973  00000-0  58098-3 0  9995,2 54100  53.2175  39.2392 0001267  97.3164 262.7972 15.08850168100513,6917.849,95.437,540.591,538.838,0.0
54100.0,STARLINK-5185,PAYLOAD,2024-08-11 11:56:12,15.08851827,0.0001512,53.218,35.9706,87.2133,272.9032,0.00069752,0.00010834,0.0,0 STARLINK-5185,1 54100U 22136BB  24224.49736817  .00010834  00000-0  69752-3 0  9991,2 54100  53.2180  35.9706 0001512  87.2133 272.9032 15.08851827100623,6917.844,95.437,540.755,538.663,0.0
54100.0,STARLINK-5185,PAYLOAD,2024-08-11 21:28:31,15.08853075,0.0001366,53.2185,34.1834,80.0074,280.1072,0.0015132,0.00023885,0.0,0 STARLINK-5185,1 54100U 22136BB  24224.89480849  .00023885  00000-0  15132-2 0  9998,2 54100  53.2185  34.1834 0001366  80.0074 280.1072 15.08853075100210,6917.84,95.437,540.65,538.76,0.0
54100.0,STARLINK-5185,PAYLOAD,2024-08-12 03:50:03,15.08844658,0.0001344,53.2181,32.9909,66.4928,293.6206,0.00074697,0.00011622,0.0,0 STARLINK-5185,1 54100U 22136BB  24225.15976560  .00011622  00000-0  74697-3 0  9996,2 54100  53.2181  32.9909 0001344  66.4928 293.6206 15.08844658100728,6917.866,95.437,540.661,538.801,0.0
54100.0,STARLINK-5185,PAYLOAD,2024-08-12 11:46:59,15.08852022,0.0001029,53.2185,31.5082,78.2971,281.8136,0.0010032,0.00015719,0.0,0 STARLINK-5185,1 54100U 22136BB  24225.49096634  .00015719  00000-0  10032-2 0  9991,2 54100  53.2185  31.5082 0001029  78.2971 281.8136 15.08852022100307,6917.844,95.437,540.42,538.997,0.0
54100.0,STARLINK-5185,PAYLOAD,2024-08-12 21:19:16,15.08907894,0.0001619,53.2172,29.7265,98.984,261.1335,0.0022235,0.00035343,0.0,0 STARLINK-5185,1 54100U 22136BB  24225.88838865  .00035343  00000-0  22235-2 0  9997,2 54100  53.2172  29.7265 0001619  98.9840 261.1335 15.08907894100832,6917.673,95.433,540.658,538.418,0.0
54100.0,STARLINK-5185,PAYLOAD,2024-08-13 03:40:49,15.08879332,0.0001929,53.2189,28.5321,81.3674,278.7537,0.0005481,8.455e-05,0.0,0 STARLINK-5185,1 54100U 22136BB  24226.15334575  .00008455  00000-0  54810-3 0  9996,2 54100  53.2189  28.5321 0001929  81.3674 278.7537 15.08879332100872,6917.76,95.435,540.96,538.291,0.0
54100.0,STARLINK-5185,PAYLOAD,2024-08-13 11:37:44,15.08846572,9.51e-05,53.2127,27.0479,57.9635,302.1449,-0.0007563,-0.00012306,0.0,0 STARLINK-5185,1 54100U 22136BB  24226.48454426 -.00012306  00000-0 -75630-3 0  9995,2 54100  53.2127  27.0479 0000951  57.9635 302.1449 15.08846572100922,6917.86,95.437,540.383,539.067,0.0
54100.0,STARLINK-5185,PAYLOAD,2024-08-13 17:59:17,15.08820578,0.0001996,53.2142,25.8606,95.9757,264.1463,-0.0015334,-0.00024597,0.0,0 STARLINK-5185,1 54100U 22136BB  24226.74951071 -.00024597  00000-0 -15334-2 0  9991,2 54100  53.2142  25.8606 0001996  95.9757 264.1463 15.08820578100969,6917.94,95.439,541.186,538.424,0.0
54100.0,STARLINK-5185,PAYLOAD,2024-08-14 14:39:20,15.08816172,0.0001194,53.2138,21.9913,64.8513,295.2603,0.00067822,0.00010515,0.0,0 STARLINK-5185,1 54100U 22136BB  24227.61065137  .00010515  00000-0  67822-3 0  9990,2 54100  53.2138  21.9913 0001194  64.8513 295.2603 15.08816172100626,6917.953,95.439,540.644,538.992,0.0
54100.0,STARLINK-5185,PAYLOAD,2024-08-14 17:50:06,15.08826214,0.0001131,53.2165,21.4006,79.6401,280.4718,0.00094878,0.00014838,0.0,0 STARLINK-5185,1 54100U 22136BB  24227.74313225  .00014838  00000-0  94878-3 0  9991,2 54100  53.2165  21.4006 0001131  79.6401 280.4718 15.08826214101111,6917.923,95.438,540.57,539.005,0.0
54100.0,STARLINK-5185,PAYLOAD,2024-08-15 03:22:25,15.08835712,0.0001128,53.2164,19.6163,82.3983,277.7137,0.0009025,0.00014103,0.0,0 STARLINK-5185,1 54100U 22136BB  24228.14057520  .00014103  00000-0  90250-3 0  9994,2 54100  53.2164  19.6163 0001128  82.3983 277.7137 15.08835712100706,6917.893,95.438,540.539,538.978,0.0
54100.0,STARLINK-5185,PAYLOAD,2024-08-15 17:40:53,15.08849915,0.0001221,53.2168,16.9399,80.6737,279.4393,0.00088999,0.00013908,0.0,0 STARLINK-5185,1 54100U 22136BB  24228.73673502  .00013908  00000-0  88999-3 0  9992,2 54100  53.2168  16.9399 0001221  80.6737 279.4393 15.08849915100795,6917.85,95.437,540.56,538.87,0.0
54100.0,STARLINK-5185,PAYLOAD,2024-08-16 03:13:12,15.08848158,0.0001535,53.2158,15.156,84.9717,275.1451,0.00071209,0.00011066,0.0,0 STARLINK-5185,1 54100U 22136BB  24229.13417603  .00011066  00000-0  71209-3 0  9994,2 54100  53.2158  15.1560 0001535  84.9717 275.1451 15.08848158101324,6917.855,95.437,540.782,538.659,0.0
54100.0,STARLINK-5185,PAYLOAD,2024-08-18 12:27:06,15.08856608,0.0001311,53.2179,4.4505,87.322,272.7923,0.00054748,8.44e-05,0.0,0 STARLINK-5185,1 54100U 22136BB  24231.51881950  .00008440  00000-0  54748-3 0  9990,2 54100  53.2179   4.4505 0001311  87.3220 272.7923 15.08856608101680,6917.83,95.437,540.602,538.788,0.0
54100.0,STARLINK-5185,PAYLOAD,2024-08-18 20:24:01,15.08875402,0.0001317,53.2181,2.9632,92.9033,267.211,0.0012211,0.00019218,0.0,0 STARLINK-5185,1 54100U 22136BB  24231.85001192  .00019218  00000-0  12211-2 0  9992,2 54100  53.2181   2.9632 0001317  92.9033 267.2110 15.08875402101261,6917.772,95.435,540.548,538.726,0.0
54100.0,STARLINK-5185,PAYLOAD,2024-08-19 04:20:57,15.08845028,0.0001322,53.2182,1.4762,101.0328,259.0813,-5.0461e-05,-1.091e-05,0.0,0 STARLINK-5185,1 54100U 22136BB  24232.18121562 -.00001091  00000-0 -50461-4 0  9996,2 54100  53.2182   1.4762 0001322 101.0328 259.0813 15.08845028101782,6917.865,95.437,540.645,538.815,0.0
54100.0,STARLINK-5185,PAYLOAD,2024-08-19 13:53:15,15.08844921,0.0001326,53.2183,359.6922,100.9028,259.2114,0.00019001,2.738e-05,0.0,0 STARLINK-5185,1 54100U 22136BB  24232.57865634  .00002738  00000-0  19001-3 0  9995,2 54100  53.2183 359.6922 0001326 100.9028 259.2114 15.08844921101370,6917.865,95.437,540.648,538.813,0.0
54100.0,STARLINK-5185,PAYLOAD,2024-08-20 12:08:39,15.0884958,0.0001391,53.2183,355.5299,103.0716,257.0432,0.00068468,0.00010628,0.0,0 STARLINK-5185,1 54100U 22136BB  24233.50601753  .00010628  00000-0  68468-3 0  9997,2 54100  53.2183 355.5299 0001391 103.0716 257.0432 15.08849580101984,6917.851,95.437,540.678,538.754,0.0
54100.0,STARLINK-5185,PAYLOAD,2024-08-20 13:44:03,15.08851011,0.0001386,53.2184,355.2326,102.7334,257.3813,0.00068706,0.00010667,0.0,0 STARLINK-5185,1 54100U 22136BB  24233.57225697  .00010667  00000-0  68706-3 0  9991,2 54100  53.2184 355.2326 0001386 102.7334 257.3813 15.08851011101527,6917.847,95.437,540.671,538.753,0.0
54100.0,STARLINK-5185,PAYLOAD,2024-08-20 20:05:35,15.08865546,0.0001369,53.2183,354.0432,102.5187,257.5959,0.001027,0.00016106,0.0,0 STARLINK-5185,1 54100U 22136BB  24233.83721230  .00016106  00000-0  10270-2 0  9990,2 54100  53.2183 354.0432 0001369 102.5187 257.5959 15.08865546102034,6917.802,95.436,540.614,538.72,0.0
54100.0,STARLINK-5185,PAYLOAD,2024-08-21 13:34:50,15.088427,0.0001464,53.218,350.7728,112.3396,247.7752,0.00035485,5.364e-05,0.0,0 STARLINK-5185,1 54100U 22136BB  24234.56585872  .00005364  00000-0  35485-3 0  9991,2 54100  53.2180 350.7728 0001464 112.3396 247.7752 15.08842700102140,6917.872,95.437,540.75,538.724,0.0
54100.0,STARLINK-5185,PAYLOAD,2024-08-21 15:10:13,15.08849519,0.0001332,53.2181,350.475,106.1607,253.9532,0.00068308,0.00010603,0.0,0 STARLINK-5185,1 54100U 22136BB  24234.63209858  .00010603  00000-0  68308-3 0  9998,2 54100  53.2181 350.4750 0001332 106.1607 253.9532 15.08849519101681,6917.851,95.437,540.638,538.795,0.0
